start=new Date('2021-09-20T00:00:00.000Z').valueOf();
sats=[{"MEAN_MOTION":"15.06405054","MEAN_ELEMENT_THEORY":"SGP4","INCLINATION":"53.0469","ECCENTRICITY":"0.00011660","CENTER_NAME":"EARTH","ARG_OF_PERICENTER":"87.2650","ELEMENT_SET_NO":"999","APOAPSIS":"548.006","MEAN_MOTION_DOT":"0.00001956","REF_FRAME":"TEME","FILE":"3120378","LAUNCH_DATE":"2021-03-04","EPOCH":"2021-09-19T21:10:07.438656","PERIOD":"95.592","TIME_SYSTEM":"UTC","EPHEMERIS_TYPE":"0","REV_AT_EPOCH":"3206","CLASSIFICATION_TYPE":"U","TLE_LINE1":"1 47751U 21017AF  21262.88203054  .00001956  00000-0  15014-3 0  9993","COUNTRY_CODE":"US","MEAN_ANOMALY":"272.8472","DECAY_DATE":null,"MEAN_MOTION_DDOT":"0.0000000000000","GP_ID":"185056872","OBJECT_TYPE":"PAYLOAD","NORAD_CAT_ID":"47751","PERIAPSIS":"546.391","OBJECT_ID":"2021-017AF","TLE_LINE2":"2 47751  53.0469 317.1084 0001166  87.2650 272.8472 15.06405054 32062","RCS_SIZE":"LARGE","SITE":"AFETR","SEMIMAJOR_AXIS":"6925.333","BSTAR":"0.00015014000000","RA_OF_ASC_NODE":"317.1084","OBJECT_NAME":"STARLINK-2168"},{"ECCENTRICITY":"0.00006220","INCLINATION":"53.0590","MEAN_ELEMENT_THEORY":"SGP4","MEAN_MOTION":"15.06402271","ELEMENT_SET_NO":"999","CENTER_NAME":"EARTH","ARG_OF_PERICENTER":"108.3415","LAUNCH_DATE":"2021-03-04","FILE":"3120378","REF_FRAME":"TEME","MEAN_MOTION_DOT":"-0.00002231","APOAPSIS":"547.637","TIME_SYSTEM":"UTC","PERIOD":"95.592","EPOCH":"2021-09-19T21:58:32.943648","CLASSIFICATION_TYPE":"U","REV_AT_EPOCH":"3190","EPHEMERIS_TYPE":"0","COUNTRY_CODE":"US","TLE_LINE1":"1 47752U 21017AG  21262.91565907 -.00002231  00000-0 -13095-3 0  9992","OBJECT_TYPE":"PAYLOAD","NORAD_CAT_ID":"47752","GP_ID":"185057122","MEAN_MOTION_DDOT":"0.0000000000000","DECAY_DATE":null,"MEAN_ANOMALY":"251.7641","OBJECT_NAME":"STARLINK-2169","SITE":"AFETR","SEMIMAJOR_AXIS":"6925.342","RA_OF_ASC_NODE":"331.9354","BSTAR":"-0.00013095000000","TLE_LINE2":"2 47752  53.0590 331.9354 0000622 108.3415 251.7641 15.06402271 31906","RCS_SIZE":"LARGE","OBJECT_ID":"2021-017AG","PERIAPSIS":"546.776"},{"LAUNCH_DATE":"2021-03-04","FILE":"3120378","MEAN_MOTION_DOT":"-0.00000615","REF_FRAME":"TEME","APOAPSIS":"548.060","TIME_SYSTEM":"UTC","EPOCH":"2021-09-19T16:36:46.119744","PERIOD":"95.592","ECCENTRICITY":"0.00012080","MEAN_ELEMENT_THEORY":"SGP4","INCLINATION":"53.0546","MEAN_MOTION":"15.06396697","ELEMENT_SET_NO":"999","CENTER_NAME":"EARTH","ARG_OF_PERICENTER":"96.8535","OBJECT_TYPE":"PAYLOAD","NORAD_CAT_ID":"47753","DECAY_DATE":null,"GP_ID":"185057874","MEAN_MOTION_DDOT":"0.0000000000000","MEAN_ANOMALY":"263.2592","OBJECT_NAME":"STARLINK-2170","SITE":"AFETR","SEMIMAJOR_AXIS":"6925.359","RA_OF_ASC_NODE":"337.9276","BSTAR":"-0.00002240900000","OBJECT_ID":"2021-017AH","PERIAPSIS":"546.387","TLE_LINE2":"2 47753  53.0546 337.9276 0001208  96.8535 263.2592 15.06396697 31796","RCS_SIZE":"LARGE","CLASSIFICATION_TYPE":"U","REV_AT_EPOCH":"3179","EPHEMERIS_TYPE":"0","COUNTRY_CODE":"US","TLE_LINE1":"1 47753U 21017AH  21262.69220046 -.00000615  00000-0 -22409-4 0  9994"},{"REF_FRAME":"TEME","MEAN_MOTION_DOT":"-0.00000358","APOAPSIS":"548.051","LAUNCH_DATE":"2021-03-04","FILE":"3120378","TIME_SYSTEM":"UTC","PERIOD":"95.592","EPOCH":"2021-09-19T22:16:28.432704","MEAN_MOTION":"15.06395216","ECCENTRICITY":"0.00011880","INCLINATION":"53.0564","MEAN_ELEMENT_THEORY":"SGP4","CENTER_NAME":"EARTH","ARG_OF_PERICENTER":"100.8897","ELEMENT_SET_NO":"999","GP_ID":"185056126","MEAN_MOTION_DDOT":"0.0000000000000","DECAY_DATE":null,"MEAN_ANOMALY":"259.2226","OBJECT_TYPE":"PAYLOAD","NORAD_CAT_ID":"47754","SITE":"AFETR","SEMIMAJOR_AXIS":"6925.363","RA_OF_ASC_NODE":"336.8733","BSTAR":"-0.00000513040000","TLE_LINE2":"2 47754  53.0564 336.8733 0001188 100.8897 259.2226 15.06395216 31792","RCS_SIZE":"LARGE","OBJECT_ID":"2021-017AJ","PERIAPSIS":"546.405","OBJECT_NAME":"STARLINK-2171","REV_AT_EPOCH":"3179","EPHEMERIS_TYPE":"0","CLASSIFICATION_TYPE":"U","TLE_LINE1":"1 47754U 21017AJ  21262.92810686 -.00000358  00000-0 -51304-5 0  9997","COUNTRY_CODE":"US"},{"APOAPSIS":"547.697","MEAN_MOTION_DOT":"0.00001271","REF_FRAME":"TEME","FILE":"3120378","LAUNCH_DATE":"2021-03-04","EPOCH":"2021-09-19T21:57:11.307744","PERIOD":"95.592","TIME_SYSTEM":"UTC","MEAN_MOTION":"15.06398324","MEAN_ELEMENT_THEORY":"SGP4","INCLINATION":"53.0584","ECCENTRICITY":"0.00006900","CENTER_NAME":"EARTH","ARG_OF_PERICENTER":"129.2270","ELEMENT_SET_NO":"999","MEAN_ANOMALY":"230.8780","DECAY_DATE":null,"MEAN_MOTION_DDOT":"0.0000000000000","GP_ID":"185056373","NORAD_CAT_ID":"47755","OBJECT_TYPE":"PAYLOAD","PERIAPSIS":"546.741","OBJECT_ID":"2021-017AK","RCS_SIZE":"LARGE","TLE_LINE2":"2 47755  53.0584 331.9385 0000690 129.2270 230.8780 15.06398324 31851","BSTAR":"0.00010418000000","SITE":"AFETR","SEMIMAJOR_AXIS":"6925.354","RA_OF_ASC_NODE":"331.9385","OBJECT_NAME":"STARLINK-2172","EPHEMERIS_TYPE":"0","REV_AT_EPOCH":"3185","CLASSIFICATION_TYPE":"U","TLE_LINE1":"1 47755U 21017AK  21262.91471421  .00001271  00000-0  10418-3 0  9999","COUNTRY_CODE":"US"},{"LAUNCH_DATE":"2021-03-04","FILE":"3120378","REF_FRAME":"TEME","MEAN_MOTION_DOT":"-0.00000488","APOAPSIS":"548.186","TIME_SYSTEM":"UTC","PERIOD":"95.593","EPOCH":"2021-09-19T22:11:10.039200","ECCENTRICITY":"0.00013500","INCLINATION":"53.0567","MEAN_ELEMENT_THEORY":"SGP4","MEAN_MOTION":"15.06387730","ELEMENT_SET_NO":"999","ARG_OF_PERICENTER":"93.7234","CENTER_NAME":"EARTH","OBJECT_TYPE":"PAYLOAD","NORAD_CAT_ID":"47756","MEAN_MOTION_DDOT":"0.0000000000000","GP_ID":"185057622","DECAY_DATE":null,"MEAN_ANOMALY":"266.3909","OBJECT_NAME":"STARLINK-2174","RA_OF_ASC_NODE":"336.8942","SITE":"AFETR","SEMIMAJOR_AXIS":"6925.386","BSTAR":"-0.00001385400000","TLE_LINE2":"2 47756  53.0567 336.8942 0001350  93.7234 266.3909 15.06387730 31839","RCS_SIZE":"LARGE","PERIAPSIS":"546.316","OBJECT_ID":"2021-017AL","CLASSIFICATION_TYPE":"U","REV_AT_EPOCH":"3183","EPHEMERIS_TYPE":"0","COUNTRY_CODE":"US","TLE_LINE1":"1 47756U 21017AL  21262.92442175 -.00000488  00000-0 -13854-4 0  9994"},{"DECAY_DATE":null,"MEAN_MOTION_DDOT":"0.0000000000000","GP_ID":"185057375","MEAN_ANOMALY":"246.0138","OBJECT_TYPE":"PAYLOAD","NORAD_CAT_ID":"47757","SITE":"AFETR","RA_OF_ASC_NODE":"336.9546","SEMIMAJOR_AXIS":"6925.339","BSTAR":"0.00008307600000","PERIAPSIS":"546.603","OBJECT_ID":"2021-017AM","RCS_SIZE":"LARGE","TLE_LINE2":"2 47757  53.0574 336.9546 0000868 114.0942 246.0138 15.06403063 31775","OBJECT_NAME":"STARLINK-2175","REV_AT_EPOCH":"3177","EPHEMERIS_TYPE":"0","CLASSIFICATION_TYPE":"U","TLE_LINE1":"1 47757U 21017AM  21262.90967501  .00000956  00000-0  83076-4 0  9999","COUNTRY_CODE":"US","MEAN_MOTION_DOT":"0.00000956","REF_FRAME":"TEME","APOAPSIS":"547.805","LAUNCH_DATE":"2021-03-04","FILE":"3120378","TIME_SYSTEM":"UTC","EPOCH":"2021-09-19T21:49:55.920864","PERIOD":"95.592","MEAN_MOTION":"15.06403063","ECCENTRICITY":"0.00008680","MEAN_ELEMENT_THEORY":"SGP4","INCLINATION":"53.0574","CENTER_NAME":"EARTH","ARG_OF_PERICENTER":"114.0942","ELEMENT_SET_NO":"999"},{"FILE":"3120015","LAUNCH_DATE":"2021-03-04","APOAPSIS":"552.344","MEAN_MOTION_DOT":"0.00000826","REF_FRAME":"TEME","EPOCH":"2021-09-19T12:21:59.205312","PERIOD":"95.592","TIME_SYSTEM":"UTC","MEAN_ELEMENT_THEORY":"SGP4","INCLINATION":"53.0585","ECCENTRICITY":"0.00073910","MEAN_MOTION":"15.06396093","ELEMENT_SET_NO":"999","ARG_OF_PERICENTER":"199.8976","CENTER_NAME":"EARTH","NORAD_CAT_ID":"47758","OBJECT_TYPE":"PAYLOAD","MEAN_ANOMALY":"160.1726","DECAY_DATE":null,"MEAN_MOTION_DDOT":"0.0000000000000","GP_ID":"185025081","OBJECT_NAME":"STARLINK-2176","PERIAPSIS":"542.107","OBJECT_ID":"2021-017AN","TLE_LINE2":"2 47758  53.0585 338.7267 0007391 199.8976 160.1726 15.06396093 31777","RCS_SIZE":"LARGE","SITE":"AFETR","RA_OF_ASC_NODE":"338.7267","SEMIMAJOR_AXIS":"6925.361","BSTAR":"0.00007448300000","CLASSIFICATION_TYPE":"U","EPHEMERIS_TYPE":"0","REV_AT_EPOCH":"3177","COUNTRY_CODE":"US","TLE_LINE1":"1 47758U 21017AN  21262.51526858  .00000826  00000-0  74483-4 0  9991"},{"COUNTRY_CODE":"US","TLE_LINE1":"1 47759U 21017AP  21262.55061321 -.00004525  00000-0 -94482-4 0  9998","CLASSIFICATION_TYPE":"U","REV_AT_EPOCH":"3189","EPHEMERIS_TYPE":"0","OBJECT_NAME":"STARLINK-2177","SEMIMAJOR_AXIS":"6817.793","SITE":"AFETR","BSTAR":"-0.00009448200000","RA_OF_ASC_NODE":"329.3783","PERIAPSIS":"438.798","OBJECT_ID":"2021-017AP","RCS_SIZE":"LARGE","TLE_LINE2":"2 47759  53.0544 329.3783 0001262  84.3346 275.7802 15.42186956 31898","OBJECT_TYPE":"PAYLOAD","NORAD_CAT_ID":"47759","DECAY_DATE":null,"MEAN_MOTION_DDOT":"0.0000000000000","GP_ID":"185026332","MEAN_ANOMALY":"275.7802","ELEMENT_SET_NO":"999","CENTER_NAME":"EARTH","ARG_OF_PERICENTER":"84.3346","ECCENTRICITY":"0.00012620","MEAN_ELEMENT_THEORY":"SGP4","INCLINATION":"53.0544","MEAN_MOTION":"15.42186956","TIME_SYSTEM":"UTC","EPOCH":"2021-09-19T13:12:52.981344","PERIOD":"93.374","LAUNCH_DATE":"2021-03-04","FILE":"3120015","MEAN_MOTION_DOT":"-0.00004525","REF_FRAME":"TEME","APOAPSIS":"440.519"},{"CLASSIFICATION_TYPE":"U","REV_AT_EPOCH":"3164","EPHEMERIS_TYPE":"0","COUNTRY_CODE":"US","TLE_LINE1":"1 47760U 21017AQ  21262.74288643 -.00000183  00000-0  65798-5 0  9993","OBJECT_TYPE":"PAYLOAD","NORAD_CAT_ID":"47760","DECAY_DATE":null,"GP_ID":"185057123","MEAN_MOTION_DDOT":"0.0000000000000","MEAN_ANOMALY":"240.1176","OBJECT_NAME":"STARLINK-2178","SITE":"AFETR","RA_OF_ASC_NODE":"347.6753","SEMIMAJOR_AXIS":"6925.364","BSTAR":"0.00000657980000","PERIAPSIS":"546.319","OBJECT_ID":"2021-017AQ","RCS_SIZE":"LARGE","TLE_LINE2":"2 47760  53.0566 347.6753 0001314 119.9944 240.1176 15.06394915 31640","ECCENTRICITY":"0.00013140","MEAN_ELEMENT_THEORY":"SGP4","INCLINATION":"53.0566","MEAN_MOTION":"15.06394915","ELEMENT_SET_NO":"999","ARG_OF_PERICENTER":"119.9944","CENTER_NAME":"EARTH","LAUNCH_DATE":"2021-03-04","FILE":"3120378","MEAN_MOTION_DOT":"-0.00000183","REF_FRAME":"TEME","APOAPSIS":"548.139","TIME_SYSTEM":"UTC","EPOCH":"2021-09-19T17:49:45.387552","PERIOD":"95.592"}];
